NORAD_CAT_ID,OBJECT_NAME,OBJECT_TYPE,EPOCH,MEAN_MOTION,ECCENTRICITY,INCLINATION,RA_OF_ASC_NODE,ARG_OF_PERICENTER,MEAN_ANOMALY,BSTAR,MEAN_MOTION_DOT,MEAN_MOTION_DDOT,TLE_LINE0,TLE_LINE1,TLE_LINE2,SEMIMAJOR_AXIS,PERIOD,APOGEE,PERIGEE,DECAYED
52089.0,STARLINK-3722,PAYLOAD,2023-10-21 16:40:11,15.08857055,0.0001491,53.2172,34.6806,86.3704,273.7459,0.00099867,0.00015649,0.0,0 STARLINK-3722,1 52089U 22029B   23294.69458300  .00015649  00000-0  99867-3 0  9991,2 52089  53.2172  34.6806 0001491  86.3704 273.7459 15.08857055 89318,6917.828,95.436,540.725,538.662,0.0
52089.0,STARLINK-3722,PAYLOAD,2023-10-22 13:20:13,15.08835651,0.0001393,53.217,30.8155,96.0895,264.0256,0.0001401,1.942e-05,0.0,0 STARLINK-3722,1 52089U 22029B   23295.55571045  .00001942  00000-0  14010-3 0  9997,2 52089  53.2170  30.8155 0001393  96.0895 264.0256 15.08835651 89441,6917.894,95.438,540.722,538.795,0.0
52089.0,STARLINK-3722,PAYLOAD,2023-10-23 13:11:00,15.08845937,0.0001426,53.2179,26.357,92.0065,268.1091,0.00050072,7.691e-05,0.0,0 STARLINK-3722,1 52089U 22029B   23296.54931056  .00007691  00000-0  50072-3 0  9994,2 52089  53.2179  26.3570 0001426  92.0065 268.1091 15.08845937 89599,6917.862,95.437,540.714,538.741,0.0
52089.0,STARLINK-3722,PAYLOAD,2023-10-23 22:43:19,15.08844313,0.0001394,53.2173,24.5709,82.6252,277.4899,0.00054267,8.36e-05,0.0,0 STARLINK-3722,1 52089U 22029B   23296.94675241  .00008360  00000-0  54267-3 0  9993,2 52089  53.2173  24.5709 0001394  82.6252 277.4899 15.08844313 89657,6917.867,95.437,540.697,538.768,0.0
52089.0,STARLINK-3722,PAYLOAD,2023-10-24 13:01:47,15.08842807,0.0001556,53.2188,21.8964,91.6186,268.4985,0.00015398,2.164e-05,0.0,0 STARLINK-3722,1 52089U 22029B   23297.54291222  .00002164  00000-0  15398-3 0  9991,2 52089  53.2188  21.8964 0001556  91.6186 268.4985 15.08842807 89744,6917.872,95.437,540.813,538.66,0.0
52089.0,STARLINK-3722,PAYLOAD,2023-10-25 12:52:34,15.08847363,0.000156,53.2194,17.4351,87.5405,272.5766,8.3479e-05,1.041e-05,0.0,0 STARLINK-3722,1 52089U 22029B   23298.53650931  .00001041  00000-0  83479-4 0  9996,2 52089  53.2194  17.4351 0001560  87.5405 272.5766 15.08847363 89896,6917.858,95.437,540.802,538.644,0.0
52089.0,STARLINK-3722,PAYLOAD,2023-10-25 22:24:53,15.0884601,0.0001553,53.2197,15.6516,90.6281,269.4889,2.0445e-05,3.7e-07,0.0,0 STARLINK-3722,1 52089U 22029B   23298.93394943  .00000037  00000-0  20445-4 0  9996,2 52089  53.2197  15.6516 0001553  90.6281 269.4889 15.08846010 89957,6917.862,95.437,540.801,538.653,0.0
52089.0,STARLINK-3722,PAYLOAD,2023-10-26 04:46:26,15.08842075,0.0001541,53.2197,14.4624,89.5041,270.6127,0.0001296,1.775e-05,0.0,0 STARLINK-3722,1 52089U 22029B   23299.19891247  .00001775  00000-0  12960-3 0  9996,2 52089  53.2197  14.4624 0001541  89.5041 270.6127 15.08842075 89992,6917.874,95.437,540.805,538.673,0.0
52089.0,STARLINK-3722,PAYLOAD,2023-10-26 12:43:21,15.08851147,0.0001562,53.2194,12.975,89.9927,270.1244,0.00016695,2.371e-05,0.0,0 STARLINK-3722,1 52089U 22029B   23299.53010747  .00002371  00000-0  16695-3 0  9994,2 52089  53.2194  12.9750 0001562  89.9927 270.1244 15.08851147 90045,6917.846,95.437,540.792,538.631,0.0
52089.0,STARLINK-3722,PAYLOAD,2023-10-27 10:58:44,15.0885485,0.0001505,53.2174,8.811,84.3663,275.7501,0.00023765,3.498e-05,0.0,0 STARLINK-3722,1 52089U 22029B   23300.45746329  .00003498  00000-0  23765-3 0  9997,2 52089  53.2174   8.8110 0001505  84.3663 275.7501 15.08854850 90186,6917.835,95.437,540.741,538.659,0.0
52089.0,STARLINK-3722,PAYLOAD,2023-10-27 22:06:27,15.08846347,0.0001686,53.2196,6.7311,82.0113,278.107,0.00012465,1.697e-05,0.0,0 STARLINK-3722,1 52089U 22029B   23300.92114671  .00001697  00000-0  12465-3 0  9992,2 52089  53.2196   6.7311 0001686  82.0113 278.1070 15.08846347 90253,6917.861,95.437,540.892,538.56,0.0
52089.0,STARLINK-3722,PAYLOAD,2023-10-28 10:49:32,15.0883445,0.0001601,53.2177,4.3508,93.0483,267.0693,-9.0345e-05,-1.725e-05,0.0,0 STARLINK-3722,1 52089U 22029B   23301.45107158 -.00001725  00000-0 -90345-4 0  9991,2 52089  53.2177   4.3508 0001601  93.0483 267.0693 15.08834450 90332,6917.897,95.438,540.87,538.655,0.0
52089.0,STARLINK-3722,PAYLOAD,2023-10-29 10:40:19,15.08856738,0.0001633,53.218,359.891,93.5486,266.5693,0.00092084,0.00014404,0.0,0 STARLINK-3722,1 52089U 22029B   23302.44467007  .00014404  00000-0  92084-3 0  9990,2 52089  53.2180 359.8910 0001633  93.5486 266.5693 15.08856738 90487,6917.829,95.436,540.824,538.565,0.0
52089.0,STARLINK-3722,PAYLOAD,2023-10-29 13:51:05,15.08865667,0.000165,53.2177,359.2954,94.4488,265.6693,0.0011534,0.00018129,0.0,0 STARLINK-3722,1 52089U 22029B   23302.57714782  .00018129  00000-0  11534-2 0  9997,2 52089  53.2177 359.2954 0001650  94.4488 265.6693 15.08865667 90500,6917.802,95.436,540.808,538.525,0.0
52089.0,STARLINK-3722,PAYLOAD,2023-10-30 04:09:34,15.08840862,0.0001009,53.2175,356.6205,89.2634,270.8474,0.00015564,2.19e-05,0.0,0 STARLINK-3722,1 52089U 22029B   23303.17331193  .00002190  00000-0  15564-3 0  9994,2 52089  53.2175 356.6205 0001009  89.2634 270.8474 15.08840862 90595,6917.878,95.438,540.441,539.045,0.0
52089.0,STARLINK-3722,PAYLOAD,2023-10-30 20:03:25,15.08832699,0.0001437,53.2173,353.6465,101.4145,258.7008,0.00032019,4.811e-05,0.0,0 STARLINK-3722,1 52089U 22029B   23303.83571726  .00004811  00000-0  32019-3 0  9991,2 52089  53.2173 353.6465 0001437 101.4145 258.7008 15.08832699 90695,6917.903,95.438,540.762,538.774,0.0
52089.0,STARLINK-3722,PAYLOAD,2023-10-31 10:21:54,15.08834355,0.0001548,53.218,350.9718,102.4848,257.6318,0.00010644,1.406e-05,0.0,0 STARLINK-3722,1 52089U 22029B   23304.43188085  .00001406  00000-0  10644-3 0  9997,2 52089  53.2180 350.9718 0001548 102.4848 257.6318 15.08834355 90781,6917.898,95.438,540.834,538.692,0.0
52089.0,STARLINK-3722,PAYLOAD,2023-11-01 10:12:41,15.08846137,0.0001596,53.2177,346.5125,106.6264,253.4903,0.00033851,5.104e-05,0.0,0 STARLINK-3722,1 52089U 22029B   23305.42548048  .00005104  00000-0  33851-3 0  9990,2 52089  53.2177 346.5125 0001596 106.6264 253.4903 15.08846137 90933,6917.862,95.437,540.831,538.623,0.0
52089.0,STARLINK-3722,PAYLOAD,2023-11-01 19:45:00,15.08846002,0.0001488,53.2174,344.7276,100.6842,259.4317,0.00026663,3.959e-05,0.0,0 STARLINK-3722,1 52089U 22029B   23305.82291991  .00003959  00000-0  26663-3 0  9995,2 52089  53.2174 344.7276 0001488 100.6842 259.4317 15.08846002 90995,6917.862,95.437,540.756,538.698,0.0
52089.0,STARLINK-3722,PAYLOAD,2023-11-02 11:38:51,15.08853801,0.000169,53.2174,341.752,92.1916,267.927,0.00029011,4.334e-05,0.0,0 STARLINK-3722,1 52089U 22029B   23306.48531555  .00004334  00000-0  29011-3 0  9999,2 52089  53.2174 341.7520 0001690  92.1916 267.9270 15.08853801 91095,6917.838,95.437,540.872,538.534,0.0
52089.0,STARLINK-3722,PAYLOAD,2023-11-02 19:35:47,15.08845775,0.0001801,53.2171,340.2666,85.0979,275.0219,0.00010359,1.361e-05,0.0,0 STARLINK-3722,1 52089U 22029B   23306.81651752  .00001361  00000-0  10359-3 0  9990,2 52089  53.2171 340.2666 0001801  85.0979 275.0219 15.08845775 91141,6917.863,95.437,540.974,538.482,0.0
52089.0,STARLINK-3722,PAYLOAD,2023-11-03 09:54:15,15.08841661,0.0001542,53.217,337.5904,86.0454,274.0715,1.8772e-05,1.1e-07,0.0,0 STARLINK-3722,1 52089U 22029B   23307.41267994  .00000011  00000-0  18772-4 0  9997,2 52089  53.2170 337.5904 0001542  86.0454 274.0715 15.08841661 91235,6917.875,95.437,540.807,538.674,0.0
52089.0,STARLINK-3722,PAYLOAD,2023-11-03 19:26:34,15.08842752,0.0001568,53.2172,335.8062,85.5451,274.572,6.8433e-05,8.01e-06,0.0,0 STARLINK-3722,1 52089U 22029B   23307.81012003  .00000801  00000-0  68433-4 0  9996,2 52089  53.2172 335.8062 0001568  85.5451 274.5720 15.08842752 91291,6917.872,95.437,540.822,538.652,0.0
52089.0,STARLINK-3722,PAYLOAD,2023-11-04 11:20:25,15.08849054,0.0001684,53.217,332.8298,93.5153,266.6032,0.00024581,3.627e-05,0.0,0 STARLINK-3722,1 52089U 22029B   23308.47251820  .00003627  00000-0  24581-3 0  9995,2 52089  53.2170 332.8298 0001684  93.5153 266.6032 15.08849054 91395,6917.853,95.437,540.883,538.553,0.0
52089.0,STARLINK-3722,PAYLOAD,2023-11-04 19:17:21,15.08847609,0.0001525,53.2166,331.3442,93.1479,266.9687,0.00025743,3.812e-05,0.0,0 STARLINK-3722,1 52089U 22029B   23308.80371890  .00003812  00000-0  25743-3 0  9999,2 52089  53.2166 331.3442 0001525  93.1479 266.9687 15.08847609 91445,6917.857,95.437,540.777,538.667,0.0
52089.0,STARLINK-3722,PAYLOAD,2023-11-05 11:11:12,15.08863104,0.0001722,53.2167,328.3699,97.8501,262.2686,0.00064442,9.989e-05,0.0,0 STARLINK-3722,1 52089U 22029B   23309.46611427  .00009989  00000-0  64442-3 0  9995,2 52089  53.2167 328.3699 0001722  97.8501 262.2686 15.08863104 91549,6917.81,95.436,540.866,538.484,0.0
52089.0,STARLINK-3722,PAYLOAD,2023-11-06 11:01:59,15.08876739,0.0001751,53.2171,323.9085,80.5151,279.6039,0.0017895,0.00028336,0.0,0 STARLINK-3722,1 52089U 22029B   23310.45971188  .00028336  00000-0  17895-2 0  9995,2 52089  53.2171 323.9085 0001751  80.5151 279.6039 15.08876739 91694,6917.768,95.435,540.844,538.422,0.0
52089.0,STARLINK-3722,PAYLOAD,2023-11-07 01:20:29,15.08773071,0.000116,53.2169,321.2335,104.6935,255.4185,0.00070267,0.00010892,0.0,0 STARLINK-3722,1 52089U 22029B   23311.05590196  .00010892  00000-0  70267-3 0  9999,2 52089  53.2169 321.2335 0001160 104.6935 255.4185 15.08773071 91781,6918.085,95.442,540.752,539.147,0.0
52089.0,STARLINK-3722,PAYLOAD,2023-11-07 07:42:02,15.08818697,0.0001447,53.2175,320.0447,92.5128,267.603,0.0028298,0.0004501,0.0,0 STARLINK-3722,1 52089U 22029B   23311.32086129  .00045010  00000-0  28298-2 0  9991,2 52089  53.2175 320.0447 0001447  92.5128 267.6030 15.08818697 91829,6917.946,95.439,540.812,538.809,0.0
52089.0,STARLINK-3722,PAYLOAD,2023-11-07 17:14:21,15.0884246,0.0001282,53.2179,318.2596,91.1086,269.0053,0.0019736,0.00031264,0.0,0 STARLINK-3722,1 52089U 22029B   23311.71830272  .00031264  00000-0  19736-2 0  9993,2 52089  53.2179 318.2596 0001282  91.1086 269.0053 15.08842460 91884,6917.873,95.437,540.625,538.851,0.0
